ONEWEB-0350             
1 49214U 21083AE  25116.80934700 -.00000182  00000+0 -53380-3 0  9994
2 49214  87.8991  42.9656 0001946  89.7067 270.4285 13.13472745176271
ONEWEB-0351             
1 49215U 21083AF  25116.74835244  .00000173  00000+0  39405-3 0  9991
2 49215  87.9305 357.3497 0000944  74.0037 286.1200 13.20772614181801
ONEWEB-0352             
1 49216U 21083AG  25116.86685305  .00000357  00000+0  94260-3 0  9990
2 49216  87.8994  42.9944 0001429  77.0765 283.0524 13.13468674176370
ONEWEB-0354             
1 49217U 21083AH  25116.92526474  .00000116  00000+0  25276-3 0  9993
2 49217  87.9304 357.3107 0001945  91.3786 268.7570 13.20770837181862
ONEWEB-0355             
1 49218U 21083AJ  25116.81957204 -.00000266  00000+0 -76320-3 0  9995
2 49218  87.8995  43.0013 0001730  84.2790 275.8536 13.13467940176248
ONEWEB-0357             
1 49219U 21083AK  25116.92209980  .00000106  00000+0  22922-3 0  9999
2 49219  87.9307 357.3194 0001648  83.4824 276.6497 13.20770108181865
ONEWEB-0332             
1 49279U 21090A   25116.77823617  .00000282  00000+0  72500-3 0  9997
2 49279  87.9084  12.5452 0001659  71.7752 288.3559 13.14503355172873
ONEWEB-0347             
1 49280U 21090B   25116.68535781 -.00000024  00000+0 -90750-4 0  9995
2 49280  87.9308 357.3731 0001811  68.3302 291.8024 13.20770645176063
